norad_id,name,regime,epoch,line1,line2,inclination,eccentricity,mean_motion,raan,arg_pericenter,mean_anomaly
40349,O3B FM11,MEO,23169.57140444,1 40349U 14083B   23169.57140444 -.00000025  00000-0  00000-0 0    18,2 40349   0.0463 358.7557 0003384  86.8907 274.3911  5.00115550155157,0.0463,0.0003384,5.0011555,358.7557,86.8907,274.3911
40349,O3B FM11,MEO,23170.57085722,1 40349U 14083B   23170.57085722 -.00000026  00000-0  00000-0 0    18,2 40349   0.0462 358.7472 0003383  87.7966 273.4935  5.00115562155201,0.0462,0.0003383,5.00115562,358.7472,87.7966,273.4935
40349,O3B FM11,MEO,23171.37041901,1 40349U 14083B   23171.37041901 -.00000025  00000-0  00000-0 0    17,2 40349   0.0462 358.6641 0003384  88.5800 272.7932  5.00115606155247,0.0462,0.0003384,5.00115606,358.6641,88.58,272.7932
40349,O3B FM11,MEO,23171.57030959,1 40349U 14083B   23171.57030959 -.00000025  00000-0  00000-0 0    10,2 40349   0.0462 358.6701 0003386  88.9861 272.3811  5.00115606155250,0.0462,0.0003386,5.00115606,358.6701,88.9861,272.3811
40349,O3B FM11,MEO,23171.77020016,1 40349U 14083B   23171.77020016 -.00000025  00000-0  00000-0 0    15,2 40349   0.0461 358.7253 0003385  89.1269 272.1851  5.00115608155261,0.0461,0.0003385,5.00115608,358.7253,89.1269,272.1851
40349,O3B FM11,MEO,23176.36768413,1 40349U 14083B   23176.36768413 -.00000016  00000-0  00000+0 0  6830,2 40349   0.0458 358.5257 0003382  92.7064 268.8066  5.00115590155641,0.0458,0.0003382,5.0011559,358.5257,92.7064,268.8066
40349,O3B FM11,MEO,23185.36275972,1 40349U 14083B   23185.36275972 -.00000015  00000-0  00000+0 0  6854,2 40349   0.0454 358.4429 0003380 101.1489 260.4454  5.00115456156091,0.0454,0.000338,5.00115456,358.4429,101.1489,260.4454
40349,O3B FM11,MEO,23189.56046050,1 40349U 14083B   23189.56046050 -.00000019  00000-0  00000+0 0  6868,2 40349   0.0452 358.4521 0003375 105.1800 256.4028  5.00115478156307,0.0452,0.0003375,5.00115478,358.4521,105.18,256.4028
40349,O3B FM11,MEO,23193.95805294,1 40349U 14083B   23193.95805294 -.00000023  00000-0  00000+0 0  6875,2 40349   0.0452 358.3411 0003361 108.7657 252.9275  5.00115530156526,0.0452,0.0003361,5.0011553,358.3411,108.7657,252.9275
40349,O3B FM11,MEO,23198.15575337,1 40349U 14083B   23198.15575337 -.00000027  00000-0  00000+0 0  6889,2 40349   0.0451 358.3006 0003348 112.0628 249.6694  5.00115638156736,0.0451,0.0003348,5.00115638,358.3006,112.0628,249.6694
40349,O3B FM11,MEO,23205.35181485,1 40349U 14083B   23205.35181485 -.00000014  00000-0  00000-0 0    13,2 40349   0.0450 358.1896 0003330 119.0469 242.7969  5.00115551156947,0.045,0.000333,5.00115551,358.1896,119.0469,242.7969
40349,O3B FM11,MEO,23206.35126786,1 40349U 14083B   23206.35126786 -.00000013  00000-0  00000-0 0    16,2 40349   0.0450 358.1791 0003328 119.9677 241.8869  5.00115535156994,0.045,0.0003328,5.00115535,358.1791,119.9677,241.8869
40349,O3B FM11,MEO,23206.75104914,1 40349U 14083B   23206.75104914 -.00000012  00000-0  00000-0 0    18,2 40349   0.0450 358.1798 0003331 120.4263 241.4276  5.00115519157017,0.045,0.0003331,5.00115519,358.1798,120.4263,241.4276
40349,O3B FM11,MEO,23212.54787363,1 40349U 14083B   23212.54787363 -.00000016  00000-0  00000+0 0  6904,2 40349   0.0450 358.2942 0003317 125.1741 236.5618  5.00115487157453,0.045,0.0003317,5.00115487,358.2942,125.1741,236.5618
40349,O3B FM11,MEO,23217.54513637,1 40349U 14083B   23217.54513637 -.00000022  00000-0  00000+0 0  6918,2 40349   0.0450 358.3706 0003308 129.6060 232.0501  5.00115490157709,0.045,0.0003308,5.0011549,358.3706,129.606,232.0501
40349,O3B FM11,MEO,23222.74229047,1 40349U 14083B   23222.74229047 -.00000028  00000-0  00000+0 0  6922,2 40349   0.0451 358.4792 0003286 134.4960 227.0495  5.00115535157968,0.0451,0.0003286,5.00115535,358.4792,134.496,227.0495
40349,O3B FM11,MEO,23227.53966270,1 40349U 14083B   23227.53966270 -.00000028  00000-0  00000+0 0  6931,2 40349   0.0452 358.6069 0003271 138.6318 222.7840  5.00115600158202,0.0452,0.0003271,5.001156,358.6069,138.6318,222.784
40349,O3B FM11,MEO,23231.93725532,1 40349U 14083B   23231.93725532 -.00000018  00000-0  00000+0 0  6944,2 40349   0.0452 358.7393 0003261 142.3870 218.8969  5.00115588158424,0.0452,0.0003261,5.00115588,358.7393,142.387,218.8969
40349,O3B FM11,MEO,23236.53473805,1 40349U 14083B   23236.53473805 -.00000014  00000-0  00000-0 0    17,2 40349   0.0453 358.9433 0003251 146.1795 214.9000  5.00115541158498,0.0453,0.0003251,5.00115541,358.9433,146.1795,214.9
40349,O3B FM11,MEO,23236.93451938,1 40349U 14083B   23236.93451938 -.00000014  00000-0  00000-0 0    14,2 40349   0.0453 359.0436 0003249 146.4129 214.5660  5.00115508158529,0.0453,0.0003249,5.00115508,359.0436,146.4129,214.566
40349,O3B FM11,MEO,23237.53419074,1 40349U 14083B   23237.53419074 -.00000015  00000-0  00000-0 0    17,2 40349   0.0453 359.1015 0003247 146.9357 213.9848  5.00115508158553,0.0453,0.0003247,5.00115508,359.1015,146.9357,213.9848
40349,O3B FM11,MEO,23238.73353332,1 40349U 14083B   23238.73353332 -.00000017  00000-0  00000-0 0    16,2 40349   0.0453 359.2237 0003244 147.9465 212.8505  5.00115511158617,0.0453,0.0003244,5.00115511,359.2237,147.9465,212.8505
40349,O3B FM11,MEO,23238.93342382,1 40349U 14083B   23238.93342382 -.00000017  00000-0  00000-0 0    11,2 40349   0.0453 359.2480 0003243 148.1001 212.6724  5.00115506158621,0.0453,0.0003243,5.00115506,359.248,148.1001,212.6724
40349,O3B FM11,MEO,23240.13276691,1 40349U 14083B   23240.13276691 -.00000019  00000-0  00000-0 0    17,2 40349   0.0453 359.3748 0003240 149.0719 211.5726  5.00115467158684,0.0453,0.000324,5.00115467,359.3748,149.0719,211.5726
40349,O3B FM11,MEO,23240.73243826,1 40349U 14083B   23240.73243826 -.00000020  00000-0  00000+0 0  6968,2 40349   0.0453 359.4357 0003239 149.5295 211.0534  5.00115467158865,0.0453,0.0003239,5.00115467,359.4357,149.5295,211.0534
40349,O3B FM11,MEO,23241.53199998,1 40349U 14083B   23241.53199998 -.00000021  00000-0  00000-0 0    19,2 40349   0.0453 359.5172 0003237 150.1679 210.3327  5.00115478158755,0.0453,0.0003237,5.00115478,359.5172,150.1679,210.3327
40349,O3B FM11,MEO,23242.13167144,1 40349U 14083B   23242.13167144 -.00000022  00000-0  00000-0 0    15,2 40349   0.0453 359.5792 0003235 150.6887 209.7495  5.00115476158786,0.0453,0.0003235,5.00115476,359.5792,150.6887,209.7495
40349,O3B FM11,MEO,23244.33046721,1 40349U 14083B   23244.33046721 -.00000023  00000-0  00000-0 0    17,2 40349   0.0453 359.6666 0003226 152.8463 207.5030  5.00115469158885,0.0453,0.0003226,5.00115469,359.6666,152.8463,207.503
40349,O3B FM11,MEO,23246.32937260,1 40349U 14083B   23246.32937260 -.00000024  00000-0  00000+0 0  6976,2 40349   0.0453 359.9469 0003222 154.3541 205.7143  5.00115490159148,0.0453,0.0003222,5.0011549,359.9469,154.3541,205.7143
40349,O3B FM11,MEO,23247.32882500,1 40349U 14083B   23247.32882500 -.00000025  00000-0  00000-0 0    14,2 40349   0.0453 359.9910 0003218 155.1594 204.8645  5.00115522159043,0.0453,0.0003218,5.00115522,359.991,155.1594,204.8645
40349,O3B FM11,MEO,23248.12838741,1 40349U 14083B   23248.12838741 -.00000026  00000-0  00000-0 0    12,2 40349   0.0453   0.0611 0003216 155.8071 204.1464  5.00115509159081,0.0453,0.0003216,5.00115509,0.0611,155.8071,204.1464
40349,O3B FM11,MEO,23249.32772999,1 40349U 14083B   23249.32772999 -.00000028  00000-0  00000-0 0    19,2 40349   0.0454   0.1375 0003210 157.4363 202.4399  5.00115546159131,0.0454,0.000321,5.00115546,0.1375,157.4363,202.4399
40349,O3B FM11,MEO,23249.52762054,1 40349U 14083B   23249.52762054 -.00000028  00000-0  00000-0 0    12,2 40349   0.0454   0.2337 0003210 157.6621 202.1176  5.00115542159157,0.0454,0.000321,5.00115542,0.2337,157.6621,202.1176
40349,O3B FM11,MEO,23250.12729265,1 40349U 14083B   23250.12729265 -.00000029  00000-0  00000-0 0    18,2 40349   0.0454   0.3130 0003207 157.5406 202.1598  5.00115522159184,0.0454,0.0003207,5.00115522,0.313,157.5406,202.1598
40349,O3B FM11,MEO,23250.72696459,1 40349U 14083B   23250.72696459 -.00000030  00000-0  00000-0 0    14,2 40349   0.0454   0.3278 0003199 157.4392 202.2465  5.00115515159209,0.0454,0.0003199,5.00115515,0.3278,157.4392,202.2465
40349,O3B FM11,MEO,23250.92685503,1 40349U 14083B   23250.92685503 -.00000030  00000-0  00000+0 0  6985,2 40349   0.0454   0.3507 0003197 157.5092 202.1534  5.00115526159376,0.0454,0.0003197,5.00115526,0.3507,157.5092,202.1534
40349,O3B FM11,MEO,23251.52652646,1 40349U 14083B   23251.52652646 -.00000031  00000-0  00000-0 0    14,2 40349   0.0454   0.4282 0003195 157.9212 201.6635  5.00115543159244,0.0454,0.0003195,5.00115543,0.4282,157.9212,201.6635
40349,O3B FM11,MEO,23251.72641686,1 40349U 14083B   23251.72641686 -.00000031  00000-0  00000-0 0    18,2 40349   0.0454   0.5158 0003192 157.9767 201.5204  5.00115556159266,0.0454,0.0003192,5.00115556,0.5158,157.9767,201.5204
40349,O3B FM11,MEO,23252.32608826,1 40349U 14083B   23252.32608826 -.00000031  00000-0  00000-0 0    14,2 40349   0.0454   0.5833 0003194 158.4941 200.9352  5.00115574159298,0.0454,0.0003194,5.00115574,0.5833,158.4941,200.9352
40349,O3B FM11,MEO,23253.52543158,1 40349U 14083B   23253.52543158 -.00000031  00000-0  00000-0 0    13,2 40349   0.0454   0.6590 0003191 159.3812 199.9719  5.00115571159340,0.0454,0.0003191,5.00115571,0.659,159.3812,199.9719
40349,O3B FM11,MEO,23254.12510291,1 40349U 14083B   23254.12510291 -.00000031  00000-0  00000-0 0    12,2 40349   0.0454   0.7952 0003197 160.2822 198.9343  5.00115586159383,0.0454,0.0003197,5.00115586,0.7952,160.2822,198.9343
40349,O3B FM11,MEO,23254.92466526,1 40349U 14083B   23254.92466526 -.00000030  00000-0  00000-0 0    10,2 40349   0.0454   0.8231 0003188 160.3944 198.7943  5.00115590159413,0.0454,0.0003188,5.0011559,0.8231,160.3944,198.7943
40349,O3B FM11,MEO,23255.52433694,1 40349U 14083B   23255.52433694 -.00000029  00000-0  00000-0 0    15,2 40349   0.0454   0.8916 0003186 160.8541 198.2661  5.00115591159445,0.0454,0.0003186,5.00115591,0.8916,160.8541,198.2661
